[{"OBJECT_NAME":"SUPERVIEW NEO-3 01","OBJECT_ID":"2024-072A","EPOCH":"2026-03-09T22:59:09.446208","MEAN_MOTION":15.23128449,"ECCENTRICITY":0.00029396,"INCLINATION":97.4184,"RA_OF_ASC_NODE":150.1524,"ARG_OF_PERICENTER":104.5976,"MEAN_ANOMALY":255.5587,"EPHEMERIS_TYPE":0,"CLASSIFICATION_TYPE":"U","NORAD_CAT_ID":59510,"ELEMENT_SET_NO":999,"REV_AT_EPOCH":10559,"BSTAR":0.00057697543,"MEAN_MOTION_DOT":0.00013563,"MEAN_MOTION_DDOT":0},{"OBJECT_NAME":"TOMORROW-S5","OBJECT_ID":"2025-052AA","EPOCH":"2026-03-09T22:18:56.653632","MEAN_MOTION":15.21504663,"ECCENTRICITY":0.0008039,"INCLINATION":97.4097,"RA_OF_ASC_NODE":323.1718,"ARG_OF_PERICENTER":130.4519,"MEAN_ANOMALY":229.7419,"EPHEMERIS_TYPE":0,"CLASSIFICATION_TYPE":"U","NORAD_CAT_ID":63234,"ELEMENT_SET_NO":999,"REV_AT_EPOCH":5474,"BSTAR":0.00063877552,"MEAN_MOTION_DOT":0.00014334,"MEAN_MOTION_DDOT":0}]
